INTELSAT 11 (IS-11)     
1 32253U 07044B   25334.63185115 -.00000047  00000+0  00000+0 0  9997
2 32253   3.0458  81.1139 0009170 159.2733 335.8647  0.99048071 66485
HORIZONS-2              
1 32388U 07063B   25334.77623325 -.00000232  00000+0  00000+0 0  9998
2 32388   2.0876  83.0940 0004789 178.4424  14.0175  1.00273133 65820
DIRECTV 11              
1 32729U 08013A   25334.62847111 -.00000103  00000+0  00000+0 0  9995
2 32729   0.0407 146.0431 0000664  21.9631  28.8213  1.00267399 43607
GALAXY 18 (G-18)        
1 32951U 08024A   25334.69511273  .00000047  00000+0  00000+0 0  9994
2 32951   0.0114 328.3462 0003195 281.9734 306.7423  1.00272465 43861
INTELSAT 25 (IS-25)     
1 33153U 08034A   25334.78459897 -.00000202  00000+0  00000+0 0  9997
2 33153   2.1941  82.7839 0005164 174.1389  63.9515  1.00272248 63701
GALAXY 19 (G-19)        
1 33376U 08045A   25334.62890446  .00000000  00000+0  00000+0 0  9993
2 33376   0.0179 328.7547 0003316 291.8228 298.5704  1.00270338 62919
FM-5                    
1 35493U 09034A   25334.77363324 -.00000178  00000+0  00000+0 0  9997
2 35493   0.0250 280.0693 0001460 240.9326 101.2772  1.00269229 44658
INTELSAT 14 (IS-14)     
1 36097U 09064A   25334.78191228 -.00000252  00000+0  00000+0 0  9997
2 36097   0.0166  24.4625 0002600 224.8456  57.0970  1.00270965 58610
