{
  "type": "FeatureCollection",
  "features": [
    {
      "type": "Feature",
      "properties": {
        "norad_id": 32253,
        "name": "INTELSAT 11 (IS-11)",
        "group": "intelsat",
        "lat": NaN,
        "lon": NaN,
        "alt_km": NaN,
        "timestamp": "2025-12-01T03:08:33.639233+00:00",
        "meta": {
          "OBJECT_NAME": "INTELSAT 11 (IS-11)",
          "OBJECT_ID": "2007-044B",
          "EPOCH": "2025-11-30T15:09:51.939360",
          "MEAN_MOTION": 0.99048071,
          "ECCENTRICITY": 0.000917,
          "INCLINATION": 3.0458,
          "RA_OF_ASC_NODE": 81.1139,
          "ARG_OF_PERICENTER": 159.2733,
          "MEAN_ANOMALY": 335.8647,
          "EPHEMERIS_TYPE": 0,
          "CLASSIFICATION_TYPE": "U",
          "NORAD_CAT_ID": 32253,
          "ELEMENT_SET_NO": 999,
          "REV_AT_EPOCH": 6648,
          "BSTAR": 0,
          "MEAN_MOTION_DOT": -4.7e-07,
          "MEAN_MOTION_DDOT": 0
        }
      },
      "geometry": {
        "type": "Point",
        "coordinates": [
          NaN,
          NaN
        ]
      }
    },
    {
      "type": "Feature",
      "properties": {
        "norad_id": 32388,
        "name": "HORIZONS-2",
        "group": "intelsat",
        "lat": NaN,
        "lon": NaN,
        "alt_km": NaN,
        "timestamp": "2025-12-01T03:08:33.639715+00:00",
        "meta": {
          "OBJECT_NAME": "HORIZONS-2",
          "OBJECT_ID": "2007-063B",
          "EPOCH": "2025-11-30T18:37:46.552800",
          "MEAN_MOTION": 1.00273133,
          "ECCENTRICITY": 0.0004789,
          "INCLINATION": 2.0876,
          "RA_OF_ASC_NODE": 83.094,
          "ARG_OF_PERICENTER": 178.4424,
          "MEAN_ANOMALY": 14.0175,
          "EPHEMERIS_TYPE": 0,
          "CLASSIFICATION_TYPE": "U",
          "NORAD_CAT_ID": 32388,
          "ELEMENT_SET_NO": 999,
          "REV_AT_EPOCH": 6582,
          "BSTAR": 0,
          "MEAN_MOTION_DOT": -2.32e-06,
          "MEAN_MOTION_DDOT": 0
        }
      },
      "geometry": {
        "type": "Point",
        "coordinates": [
          NaN,
          NaN
        ]
      }
    },
    {
      "type": "Feature",
      "properties": {
        "norad_id": 32729,
        "name": "DIRECTV 11",
        "group": "intelsat",
        "lat": NaN,
        "lon": NaN,
        "alt_km": NaN,
        "timestamp": "2025-12-01T03:08:33.640156+00:00",
        "meta": {
          "OBJECT_NAME": "DIRECTV 11",
          "OBJECT_ID": "2008-013A",
          "EPOCH": "2025-11-30T15:04:59.903904",
          "MEAN_MOTION": 1.00267399,
          "ECCENTRICITY": 6.64e-05,
          "INCLINATION": 0.0407,
          "RA_OF_ASC_NODE": 146.0431,
          "ARG_OF_PERICENTER": 21.9631,
          "MEAN_ANOMALY": 28.8213,
          "EPHEMERIS_TYPE": 0,
          "CLASSIFICATION_TYPE": "U",
          "NORAD_CAT_ID": 32729,
          "ELEMENT_SET_NO": 999,
          "REV_AT_EPOCH": 4360,
          "BSTAR": 0,
          "MEAN_MOTION_DOT": -1.03e-06,
          "MEAN_MOTION_DDOT": 0
        }
      },
      "geometry": {
        "type": "Point",
        "coordinates": [
          NaN,
          NaN
        ]
      }
    },
    {
      "type": "Feature",
      "properties": {
        "norad_id": 32951,
        "name": "GALAXY 18 (G-18)",
        "group": "intelsat",
        "lat": NaN,
        "lon": NaN,
        "alt_km": NaN,
        "timestamp": "2025-12-01T03:08:33.640595+00:00",
        "meta": {
          "OBJECT_NAME": "GALAXY 18 (G-18)",
          "OBJECT_ID": "2008-024A",
          "EPOCH": "2025-11-30T16:40:57.739872",
          "MEAN_MOTION": 1.00272465,
          "ECCENTRICITY": 0.0003195,
          "INCLINATION": 0.0114,
          "RA_OF_ASC_NODE": 328.3462,
          "ARG_OF_PERICENTER": 281.9734,
          "MEAN_ANOMALY": 306.7423,
          "EPHEMERIS_TYPE": 0,
          "CLASSIFICATION_TYPE": "U",
          "NORAD_CAT_ID": 32951,
          "ELEMENT_SET_NO": 999,
          "REV_AT_EPOCH": 4386,
          "BSTAR": 0,
          "MEAN_MOTION_DOT": 4.7e-07,
          "MEAN_MOTION_DDOT": 0
        }
      },
      "geometry": {
        "type": "Point",
        "coordinates": [
          NaN,
          NaN
        ]
      }
    },
    {
      "type": "Feature",
      "properties": {
        "norad_id": 33153,
        "name": "INTELSAT 25 (IS-25)",
        "group": "intelsat",
        "lat": NaN,
        "lon": NaN,
        "alt_km": NaN,
        "timestamp": "2025-12-01T03:08:33.641031+00:00",
        "meta": {
          "OBJECT_NAME": "INTELSAT 25 (IS-25)",
          "OBJECT_ID": "2008-034A",
          "EPOCH": "2025-11-30T18:49:49.351008",
          "MEAN_MOTION": 1.00272248,
          "ECCENTRICITY": 0.0005164,
          "INCLINATION": 2.1941,
          "RA_OF_ASC_NODE": 82.7839,
          "ARG_OF_PERICENTER": 174.1389,
          "MEAN_ANOMALY": 63.9515,
          "EPHEMERIS_TYPE": 0,
          "CLASSIFICATION_TYPE": "U",
          "NORAD_CAT_ID": 33153,
          "ELEMENT_SET_NO": 999,
          "REV_AT_EPOCH": 6370,
          "BSTAR": 0,
          "MEAN_MOTION_DOT": -2.02e-06,
          "MEAN_MOTION_DDOT": 0
        }
      },
      "geometry": {
        "type": "Point",
        "coordinates": [
          NaN,
          NaN
        ]
      }
    },
    {
      "type": "Feature",
      "properties": {
        "norad_id": 33376,
        "name": "GALAXY 19 (G-19)",
        "group": "intelsat",
        "lat": NaN,
        "lon": NaN,
        "alt_km": NaN,
        "timestamp": "2025-12-01T03:08:33.641479+00:00",
        "meta": {
          "OBJECT_NAME": "GALAXY 19 (G-19)",
          "OBJECT_ID": "2008-045A",
          "EPOCH": "2025-11-30T15:05:37.345344",
          "MEAN_MOTION": 1.00270338,
          "ECCENTRICITY": 0.0003316,
          "INCLINATION": 0.0179,
          "RA_OF_ASC_NODE": 328.7547,
          "ARG_OF_PERICENTER": 291.8228,
          "MEAN_ANOMALY": 298.5704,
          "EPHEMERIS_TYPE": 0,
          "CLASSIFICATION_TYPE": "U",
          "NORAD_CAT_ID": 33376,
          "ELEMENT_SET_NO": 999,
          "REV_AT_EPOCH": 6291,
          "BSTAR": 0,
          "MEAN_MOTION_DOT": 0,
          "MEAN_MOTION_DDOT": 0
        }
      },
      "geometry": {
        "type": "Point",
        "coordinates": [
          NaN,
          NaN
        ]
      }
    },
    {
      "type": "Feature",
      "properties": {
        "norad_id": 35493,
        "name": "FM-5",
        "group": "intelsat",
        "lat": NaN,
        "lon": NaN,
        "alt_km": NaN,
        "timestamp": "2025-12-01T03:08:33.641918+00:00",
        "meta": {
          "OBJECT_NAME": "FM-5",
          "OBJECT_ID": "2009-034A",
          "EPOCH": "2025-11-30T18:34:01.911936",
          "MEAN_MOTION": 1.00269229,
          "ECCENTRICITY": 0.000146,
          "INCLINATION": 0.025,
          "RA_OF_ASC_NODE": 280.0693,
          "ARG_OF_PERICENTER": 240.9326,
          "MEAN_ANOMALY": 101.2772,
          "EPHEMERIS_TYPE": 0,
          "CLASSIFICATION_TYPE": "U",
          "NORAD_CAT_ID": 35493,
          "ELEMENT_SET_NO": 999,
          "REV_AT_EPOCH": 4465,
          "BSTAR": 0,
          "MEAN_MOTION_DOT": -1.78e-06,
          "MEAN_MOTION_DDOT": 0
        }
      },
      "geometry": {
        "type": "Point",
        "coordinates": [
          NaN,
          NaN
        ]
      }
    },
    {
      "type": "Feature",
      "properties": {
        "norad_id": 36097,
        "name": "INTELSAT 14 (IS-14)",
        "group": "intelsat",
        "lat": NaN,
        "lon": NaN,
        "alt_km": NaN,
        "timestamp": "2025-12-01T03:08:33.642370+00:00",
        "meta": {
          "OBJECT_NAME": "INTELSAT 14 (IS-14)",
          "OBJECT_ID": "2009-064A",
          "EPOCH": "2025-11-30T18:45:57.220992",
          "MEAN_MOTION": 1.00270965,
          "ECCENTRICITY": 0.00026,
          "INCLINATION": 0.0166,
          "RA_OF_ASC_NODE": 24.4625,
          "ARG_OF_PERICENTER": 224.8456,
          "MEAN_ANOMALY": 57.097,
          "EPHEMERIS_TYPE": 0,
          "CLASSIFICATION_TYPE": "U",
          "NORAD_CAT_ID": 36097,
          "ELEMENT_SET_NO": 999,
          "REV_AT_EPOCH": 5861,
          "BSTAR": 0,
          "MEAN_MOTION_DOT": -2.52e-06,
          "MEAN_MOTION_DDOT": 0
        }
      },
      "geometry": {
        "type": "Point",
        "coordinates": [
          NaN,
          NaN
        ]
      }
    }
  ]
}